[{"OBJECT_NAME":"STARLINK-32451","OBJECT_ID":"2024-202N","EPOCH":"2026-03-08T13:12:35.429184","MEAN_MOTION":15.27578742,"ECCENTRICITY":0.00017915,"INCLINATION":43.0033,"RA_OF_ASC_NODE":244.4046,"ARG_OF_PERICENTER":276.2147,"MEAN_ANOMALY":83.85,"EPHEMERIS_TYPE":0,"CLASSIFICATION_TYPE":"U","NORAD_CAT_ID":61857,"ELEMENT_SET_NO":999,"REV_AT_EPOCH":7516,"BSTAR":5.3176636e-5,"MEAN_MOTION_DOT":1.201e-5,"MEAN_MOTION_DDOT":0},{"OBJECT_NAME":"CZ-6A R\/B","OBJECT_ID":"2023-168B","EPOCH":"2026-03-09T21:13:08.722272","MEAN_MOTION":15.16100791,"ECCENTRICITY":0.00607667,"INCLINATION":97.7542,"RA_OF_ASC_NODE":104.7688,"ARG_OF_PERICENTER":339.2379,"MEAN_ANOMALY":20.6386,"EPHEMERIS_TYPE":0,"CLASSIFICATION_TYPE":"U","NORAD_CAT_ID":58200,"ELEMENT_SET_NO":999,"REV_AT_EPOCH":12979,"BSTAR":0.00029693841,"MEAN_MOTION_DOT":5.919e-5,"MEAN_MOTION_DDOT":0}]
